start=new Date('2023-03-13T00:00:00.000Z').valueOf();
sats=[{"ELEMENT_SET_NO":"999","EPHEMERIS_TYPE":"0","MEAN_MOTION_DOT":"0.00016336","REF_FRAME":"TEME","RA_OF_ASC_NODE":"59.6154","EPOCH":"2023-03-12T22:49:13.422720","MEAN_MOTION_DDOT":"0.0000000000000","MEAN_ELEMENT_THEORY":"SGP4","MEAN_ANOMALY":"278.8156","ECCENTRICITY":"0.00021870","DECAY_DATE":null,"SEMIMAJOR_AXIS":"6917.830","TLE_LINE2":"2 53250  53.2151  59.6154 0002187  81.3084 278.8156 15.08856595 36116","PERIOD":"95.437","MEAN_MOTION":"15.08856595","REV_AT_EPOCH":"3611","TLE_LINE1":"1 53250U 22086J   23071.95084980  .00016336  00000-0  10416-2 0  9992","BSTAR":"0.00104160000000","CENTER_NAME":"EARTH","OBJECT_TYPE":"PAYLOAD","NORAD_CAT_ID":"53250","OBJECT_ID":"2022-086J","FILE":"3858743","COUNTRY_CODE":"US","ARG_OF_PERICENTER":"81.3084","TIME_SYSTEM":"UTC","APOAPSIS":"541.208","LAUNCH_DATE":"2022-07-24","OBJECT_NAME":"STARLINK-4059","INCLINATION":"53.2151","GP_ID":"227963750","RCS_SIZE":"LARGE","SITE":"AFETR","CLASSIFICATION_TYPE":"U","PERIAPSIS":"538.182"},{"NORAD_CAT_ID":"53251","OBJECT_ID":"2022-086K","COUNTRY_CODE":"US","FILE":"3858743","ARG_OF_PERICENTER":"103.9109","APOAPSIS":"540.696","TIME_SYSTEM":"UTC","GP_ID":"227964002","INCLINATION":"53.2170","OBJECT_NAME":"STARLINK-4129","LAUNCH_DATE":"2022-07-24","PERIAPSIS":"538.794","SITE":"AFETR","CLASSIFICATION_TYPE":"U","RCS_SIZE":"LARGE","EPHEMERIS_TYPE":"0","MEAN_MOTION_DOT":"0.00003685","ELEMENT_SET_NO":"999","EPOCH":"2023-03-12T22:33:19.788768","RA_OF_ASC_NODE":"59.6650","REF_FRAME":"TEME","MEAN_ELEMENT_THEORY":"SGP4","MEAN_MOTION_DDOT":"0.0000000000000","ECCENTRICITY":"0.00013750","MEAN_ANOMALY":"256.2036","TLE_LINE2":"2 53251  53.2170  59.6650 0001375 103.9109 256.2036 15.08840062 36092","SEMIMAJOR_AXIS":"6917.880","DECAY_DATE":null,"REV_AT_EPOCH":"3609","MEAN_MOTION":"15.08840062","PERIOD":"95.438","OBJECT_TYPE":"PAYLOAD","CENTER_NAME":"EARTH","BSTAR":"0.00024951000000","TLE_LINE1":"1 53251U 22086K   23071.93981237  .00003685  00000-0  24951-3 0  9995"},{"MEAN_MOTION_DDOT":"0.0000000000000","MEAN_ELEMENT_THEORY":"SGP4","REF_FRAME":"TEME","EPOCH":"2023-03-12T22:38:36.881088","RA_OF_ASC_NODE":"59.6006","MEAN_MOTION_DOT":"0.00005492","EPHEMERIS_TYPE":"0","ELEMENT_SET_NO":"999","OBJECT_TYPE":"PAYLOAD","CENTER_NAME":"EARTH","BSTAR":"0.00036279000000","TLE_LINE1":"1 53252U 22086L   23071.94348242  .00005492  00000-0  36279-3 0  9994","REV_AT_EPOCH":"3611","PERIOD":"95.437","MEAN_MOTION":"15.08852360","TLE_LINE2":"2 53252  53.2158  59.6006 0002294  93.9167 266.2087 15.08852360 36111","SEMIMAJOR_AXIS":"6917.843","DECAY_DATE":null,"ECCENTRICITY":"0.00022940","MEAN_ANOMALY":"266.2087","COUNTRY_CODE":"US","FILE":"3858743","OBJECT_ID":"2022-086L","NORAD_CAT_ID":"53252","PERIAPSIS":"538.121","CLASSIFICATION_TYPE":"U","SITE":"AFETR","RCS_SIZE":"LARGE","GP_ID":"227964752","INCLINATION":"53.2158","OBJECT_NAME":"STARLINK-4132","LAUNCH_DATE":"2022-07-24","APOAPSIS":"541.295","TIME_SYSTEM":"UTC","ARG_OF_PERICENTER":"93.9167"},{"PERIAPSIS":"538.668","SITE":"AFETR","CLASSIFICATION_TYPE":"U","RCS_SIZE":"LARGE","GP_ID":"227933779","INCLINATION":"53.2183","OBJECT_NAME":"STARLINK-4133","LAUNCH_DATE":"2022-07-24","APOAPSIS":"540.793","TIME_SYSTEM":"UTC","ARG_OF_PERICENTER":"93.9313","COUNTRY_CODE":"US","FILE":"3858534","OBJECT_ID":"2022-086M","NORAD_CAT_ID":"53253","OBJECT_TYPE":"PAYLOAD","CENTER_NAME":"EARTH","BSTAR":"0.00138270000000","TLE_LINE1":"1 53253U 22086M   23071.40621268  .00021789  00000-0  13827-2 0  9998","REV_AT_EPOCH":"3601","MEAN_MOTION":"15.08844858","PERIOD":"95.437","TLE_LINE2":"2 53253  53.2183  62.0606 0001536  93.9313 266.1855 15.08844858 36019","SEMIMAJOR_AXIS":"6917.866","DECAY_DATE":null,"ECCENTRICITY":"0.00015360","MEAN_ANOMALY":"266.1855","MEAN_MOTION_DDOT":"0.0000000000000","MEAN_ELEMENT_THEORY":"SGP4","EPOCH":"2023-03-12T09:44:56.775552","REF_FRAME":"TEME","RA_OF_ASC_NODE":"62.0606","EPHEMERIS_TYPE":"0","MEAN_MOTION_DOT":"0.00021789","ELEMENT_SET_NO":"999"},{"CLASSIFICATION_TYPE":"U","SITE":"AFETR","RCS_SIZE":"LARGE","PERIAPSIS":"539.070","INCLINATION":"53.2176","OBJECT_NAME":"STARLINK-4134","LAUNCH_DATE":"2022-07-24","GP_ID":"227963252","TIME_SYSTEM":"UTC","APOAPSIS":"540.475","ARG_OF_PERICENTER":"108.4862","COUNTRY_CODE":"US","FILE":"3858743","OBJECT_ID":"2022-086N","NORAD_CAT_ID":"53254","BSTAR":"0.00008597000000","TLE_LINE1":"1 53254U 22086N   23071.94445238  .00001080  00000-0  85970-4 0  9991","OBJECT_TYPE":"PAYLOAD","CENTER_NAME":"EARTH","PERIOD":"95.438","MEAN_MOTION":"15.08831076","REV_AT_EPOCH":"3611","SEMIMAJOR_AXIS":"6917.908","DECAY_DATE":null,"TLE_LINE2":"2 53254  53.2176  59.6528 0001015 108.4862 251.6240 15.08831076 36116","ECCENTRICITY":"0.00010150","MEAN_ANOMALY":"251.6240","MEAN_MOTION_DDOT":"0.0000000000000","MEAN_ELEMENT_THEORY":"SGP4","REF_FRAME":"TEME","RA_OF_ASC_NODE":"59.6528","EPOCH":"2023-03-12T22:40:00.685632","ELEMENT_SET_NO":"999","MEAN_MOTION_DOT":"0.00001080","EPHEMERIS_TYPE":"0"},{"MEAN_ELEMENT_THEORY":"SGP4","MEAN_MOTION_DDOT":"0.0000000000000","REF_FRAME":"TEME","RA_OF_ASC_NODE":"61.7944","EPOCH":"2023-03-12T11:09:43.205760","EPHEMERIS_TYPE":"0","MEAN_MOTION_DOT":"0.00015320","ELEMENT_SET_NO":"999","CENTER_NAME":"EARTH","OBJECT_TYPE":"PAYLOAD","TLE_LINE1":"1 53255U 22086P   23071.46508340  .00015320  00000-0  97813-3 0  9993","BSTAR":"0.00097813000000","REV_AT_EPOCH":"3602","MEAN_MOTION":"15.08855508","PERIOD":"95.437","TLE_LINE2":"2 53255  53.2166  61.7944 0001516 108.8905 251.2252 15.08855508 36025","DECAY_DATE":null,"SEMIMAJOR_AXIS":"6917.833","MEAN_ANOMALY":"251.2252","ECCENTRICITY":"0.00015160","FILE":"3858534","COUNTRY_CODE":"US","OBJECT_ID":"2022-086P","NORAD_CAT_ID":"53255","PERIAPSIS":"538.649","RCS_SIZE":"LARGE","SITE":"AFETR","CLASSIFICATION_TYPE":"U","GP_ID":"227932286","LAUNCH_DATE":"2022-07-24","INCLINATION":"53.2166","OBJECT_NAME":"STARLINK-4142","APOAPSIS":"540.747","TIME_SYSTEM":"UTC","ARG_OF_PERICENTER":"108.8905"},{"ECCENTRICITY":"0.00016490","MEAN_ANOMALY":"261.9069","SEMIMAJOR_AXIS":"6917.864","DECAY_DATE":null,"TLE_LINE2":"2 53256  53.2158  59.6968 0001649  98.2110 261.9069 15.08845303 36099","PERIOD":"95.437","MEAN_MOTION":"15.08845303","REV_AT_EPOCH":"3609","BSTAR":"0.00081915000000","TLE_LINE1":"1 53256U 22086Q   23071.93244666  .00012775  00000-0  81915-3 0  9991","OBJECT_TYPE":"PAYLOAD","CENTER_NAME":"EARTH","ELEMENT_SET_NO":"999","EPHEMERIS_TYPE":"0","MEAN_MOTION_DOT":"0.00012775","RA_OF_ASC_NODE":"59.6968","REF_FRAME":"TEME","EPOCH":"2023-03-12T22:22:43.391424","MEAN_MOTION_DDOT":"0.0000000000000","MEAN_ELEMENT_THEORY":"SGP4","ARG_OF_PERICENTER":"98.2110","TIME_SYSTEM":"UTC","APOAPSIS":"540.870","INCLINATION":"53.2158","OBJECT_NAME":"STARLINK-4147","LAUNCH_DATE":"2022-07-24","GP_ID":"227964253","SITE":"AFETR","CLASSIFICATION_TYPE":"U","RCS_SIZE":"LARGE","PERIAPSIS":"538.588","NORAD_CAT_ID":"53256","OBJECT_ID":"2022-086Q","COUNTRY_CODE":"US","FILE":"3858743"},{"MEAN_MOTION_DOT":"0.00024030","EPHEMERIS_TYPE":"0","ELEMENT_SET_NO":"999","MEAN_ELEMENT_THEORY":"SGP4","MEAN_MOTION_DDOT":"0.0000000000000","RA_OF_ASC_NODE":"61.8442","EPOCH":"2023-03-12T10:53:49.815456","REF_FRAME":"TEME","TLE_LINE2":"2 53257  53.2194  61.8442 0001409 100.7238 259.3912 15.08855858 36023","DECAY_DATE":null,"SEMIMAJOR_AXIS":"6917.832","MEAN_ANOMALY":"259.3912","ECCENTRICITY":"0.00014090","CENTER_NAME":"EARTH","OBJECT_TYPE":"PAYLOAD","TLE_LINE1":"1 53257U 22086R   23071.45404879  .00024030  00000-0  15221-2 0  9996","BSTAR":"0.00152210000000","REV_AT_EPOCH":"3602","PERIOD":"95.437","MEAN_MOTION":"15.08855858","NORAD_CAT_ID":"53257","FILE":"3858534","COUNTRY_CODE":"US","OBJECT_ID":"2022-086R","APOAPSIS":"540.672","TIME_SYSTEM":"UTC","ARG_OF_PERICENTER":"100.7238","PERIAPSIS":"538.722","RCS_SIZE":"LARGE","SITE":"AFETR","CLASSIFICATION_TYPE":"U","GP_ID":"227933279","LAUNCH_DATE":"2022-07-24","INCLINATION":"53.2194","OBJECT_NAME":"STARLINK-4144"},{"MEAN_MOTION_DOT":"0.00024715","EPHEMERIS_TYPE":"0","ELEMENT_SET_NO":"999","MEAN_MOTION_DDOT":"0.0000000000000","MEAN_ELEMENT_THEORY":"SGP4","REF_FRAME":"TEME","EPOCH":"2023-03-12T11:04:25.677984","RA_OF_ASC_NODE":"61.8121","TLE_LINE2":"2 53258  53.2172  61.8121 0001456 114.9138 245.2005 15.08856334 36029","DECAY_DATE":null,"SEMIMAJOR_AXIS":"6917.830","MEAN_ANOMALY":"245.2005","ECCENTRICITY":"0.00014560","CENTER_NAME":"EARTH","OBJECT_TYPE":"PAYLOAD","TLE_LINE1":"1 53258U 22086S   23071.46140831  .00024715  00000-0  15648-2 0  9996","BSTAR":"0.00156480000000","REV_AT_EPOCH":"3602","MEAN_MOTION":"15.08856334","PERIOD":"95.437","NORAD_CAT_ID":"53258","FILE":"3858534","COUNTRY_CODE":"US","OBJECT_ID":"2022-086S","APOAPSIS":"540.703","TIME_SYSTEM":"UTC","ARG_OF_PERICENTER":"114.9138","PERIAPSIS":"538.688","RCS_SIZE":"LARGE","SITE":"AFETR","CLASSIFICATION_TYPE":"U","GP_ID":"227931535","LAUNCH_DATE":"2022-07-24","INCLINATION":"53.2172","OBJECT_NAME":"STARLINK-4127"},{"NORAD_CAT_ID":"53259","FILE":"3858534","COUNTRY_CODE":"US","OBJECT_ID":"2022-086T","APOAPSIS":"540.755","TIME_SYSTEM":"UTC","ARG_OF_PERICENTER":"97.2025","PERIAPSIS":"538.647","RCS_SIZE":"LARGE","CLASSIFICATION_TYPE":"U","SITE":"AFETR","GP_ID":"227932786","LAUNCH_DATE":"2022-07-24","INCLINATION":"53.2194","OBJECT_NAME":"STARLINK-4140","MEAN_MOTION_DOT":"0.00009573","EPHEMERIS_TYPE":"0","ELEMENT_SET_NO":"999","MEAN_MOTION_DDOT":"0.0000000000000","MEAN_ELEMENT_THEORY":"SGP4","EPOCH":"2023-03-12T10:49:54.161184","REF_FRAME":"TEME","RA_OF_ASC_NODE":"61.8533","TLE_LINE2":"2 53259  53.2194  61.8533 0001524  97.2025 262.9140 15.08854488 36029","DECAY_DATE":null,"SEMIMAJOR_AXIS":"6917.836","MEAN_ANOMALY":"262.9140","ECCENTRICITY":"0.00015240","CENTER_NAME":"EARTH","OBJECT_TYPE":"PAYLOAD","TLE_LINE1":"1 53259U 22086T   23071.45132131  .00009573  00000-0  61848-3 0  9999","BSTAR":"0.00061848000000","REV_AT_EPOCH":"3602","MEAN_MOTION":"15.08854488","PERIOD":"95.437"}];
